[{"OBJECT_NAME":"STARLINK-5078","OBJECT_ID":"2022-177AP","EPOCH":"2026-03-09T22:00:01.999584","MEAN_MOTION":15.07993689,"ECCENTRICITY":6.649e-5,"INCLINATION":43.0006,"RA_OF_ASC_NODE":119.0603,"ARG_OF_PERICENTER":249.4798,"MEAN_ANOMALY":331.8571,"EPHEMERIS_TYPE":0,"CLASSIFICATION_TYPE":"U","NORAD_CAT_ID":54857,"ELEMENT_SET_NO":999,"REV_AT_EPOCH":567,"BSTAR":0.00361092,"MEAN_MOTION_DOT":0.00056732,"MEAN_MOTION_DDOT":0},{"OBJECT_NAME":"CZ-4B DEB","OBJECT_ID":"2006-015E","EPOCH":"2026-03-09T20:34:53.082912","MEAN_MOTION":15.19885806,"ECCENTRICITY":0.00461993,"INCLINATION":98.0565,"RA_OF_ASC_NODE":201.7753,"ARG_OF_PERICENTER":62.4887,"MEAN_ANOMALY":298.1031,"EPHEMERIS_TYPE":0,"CLASSIFICATION_TYPE":"U","NORAD_CAT_ID":29538,"ELEMENT_SET_NO":999,"REV_AT_EPOCH":5389,"BSTAR":0.0022587151,"MEAN_MOTION_DOT":0.00050103,"MEAN_MOTION_DDOT":0}]
